[
  {
    "id": "1",
    "name": "鼎泰豐 (信義店)",
    "district": "信義區",
    "cuisine": "中式",
    "rating": 4.5,
    "price_level": 3,
    "image_url": "https://images.unsplash.com/photo-1579871494447-98114c5836c6?q=80&w=2070&auto=format&fit=crop",
    "tags": ["衛生良好", "服務親切", "環境乾淨", "接受電子支付", "適合聚餐"],
    "address": "台北市信義區市府路45號B1 (台北101)",
    "phone": "02-8101-7799",
    "website": "https://www.dintaifung.com.tw/",
    "opening_hours": "11:00-21:30",
    "description": "享譽世界的台灣小籠包專門店，以其皮薄餡多、湯汁鮮美的招牌小籠包聞名。除了經典原味，還提供蟹粉、松露等多種口味選擇。服務品質優良，是觀光客必訪的美食地標之一。",
    "latitude": 25.0339,
    "longitude": 121.5645
  },
  {
    "id": "2",
    "name": "RAW",
    "district": "中山區",
    "cuisine": "創意料理",
    "rating": 4.8,
    "price_level": 4,
    "image_url": "https://images.unsplash.com/photo-1552566626-52f8b828add9?q=80&w=2070&auto=format&fit=crop",
    "tags": ["環境安靜", "服務親切", "適合約會", "接受電子支付", "米其林"],
    "address": "台北市中山區樂群三路301號",
    "phone": "02-8501-5800",
    "website": "https://www.raw.com.tw/",
    "opening_hours": "18:00-22:00 (週一、二公休)",
    "description": "由國際名廚江振誠創立的頂級餐廳，以台灣在地時令食材重新詮釋法式料理，提供極具創意的用餐體驗。餐廳設計現代簡約，一位難求。",
    "latitude": 25.0838,
    "longitude": 121.5603
  },
  {
    "id": "3",
    "name": "金峰魯肉飯",
    "district": "中正區",
    "cuisine": "台灣小吃",
    "rating": 4.2,
    "price_level": 1,
    "image_url": "https://images.unsplash.com/photo-1547573882-747f46654932?q=80&w=2070&auto=format&fit=crop",
    "tags": ["只收現金", "排隊名店", "CP值高"],
    "address": "台北市中正區羅斯福路一段10號",
    "phone": "02-2396-0808",
    "website": null,
    "opening_hours": "08:00-01:00",
    "description": "台北市最知名的魯肉飯店家之一，以香氣濃郁、肥而不膩的魯肉燥聞名。用餐時間總是座無虛席，是體驗道地台灣小吃的絕佳選擇。",
    "latitude": 25.0321,
    "longitude": 121.5182
  },
  {
    "id": "4",
    "name": "貓懶",
    "district": "文山區",
    "cuisine": "寵物餐廳",
    "rating": 4.3,
    "price_level": 2,
    "image_url": "https://images.unsplash.com/photo-1514933651103-005eec06c04b?q=80&w=1974&auto=format&fit=crop",
    "tags": ["寵物友善", "環境安靜", "接受電子支付"],
    "address": "台北市文山區指南路三段38巷34號",
    "phone": "02-2939-5938",
    "website": null,
    "opening_hours": "11:00-22:00",
    "description": "位於貓空景區的寵物友善餐廳，提供簡餐、咖啡與茶點。環境清幽，可以遠眺台北市景，是與毛小孩共度悠閒時光的好去處。",
    "latitude": 24.9976,
    "longitude": 121.5891
  },
  {
    "id": "5",
    "name": "上引水產",
    "district": "中山區",
    "cuisine": "日式",
    "rating": 4.4,
    "price_level": 3,
    "image_url": "https://images.unsplash.com/photo-1579584425555-c3ce17fd4351?q=80&w=1974&auto=format&fit=crop",
    "tags": ["海鮮", "立食", "只收現金", "新鮮"],
    "address": "台北市中山區民族東路410巷2弄18號",
    "phone": "02-2508-1268",
    "website": "http://www.addiction.com.tw/",
    "opening_hours": "07:00-24:00",
    "description": "結合新鮮魚市、立食壽司吧、燒烤與火鍋的大型複合式餐飲空間。以提供最新鮮、高品質的海產聞名，是海鮮愛好者的天堂。",
    "latitude": 25.0693,
    "longitude": 121.5298
  },
  {
    "id": "6",
    "name": "MUME",
    "district": "大安區",
    "cuisine": "歐式",
    "rating": 4.6,
    "price_level": 4,
    "image_url": "https://images.unsplash.com/photo-1414235077428-338989a2e8c0?q=80&w=2070&auto=format&fit=crop",
    "tags": ["米其林", "適合約會", "接受電子支付", "創意料理"],
    "address": "台北市大安區四維路28號",
    "phone": "02-2700-0901",
    "website": "http://www.mume.tw/",
    "opening_hours": "18:00-23:00",
    "description": "米其林一星肯定的現代歐式餐廳，主廚團隊擅長運用台灣在地食材，以北歐料理技法呈現出令人驚豔的菜色。用餐環境時尚優雅，適合特殊紀念日。",
    "latitude": 25.0346,
    "longitude": 121.5458
  },
  {
    "id": "7",
    "name": "Ice Monster",
    "district": "大安區",
    "cuisine": "冰品",
    "rating": 4.1,
    "price_level": 2,
    "image_url": "https://images.unsplash.com/photo-1567206563064-6f60f40a2b57?q=80&w=1974&auto=format&fit=crop",
    "tags": ["甜點", "接受電子支付", "排隊名店"],
    "address": "台北市大安區忠孝東路四段297號",
    "phone": "02-8771-3263",
    "website": "http://www.ice-monster.com/",
    "opening_hours": "10:30-23:30",
    "description": "台灣芒果冰的創始者，以新鮮水果製成的巨無霸綿花甜聞名國際。CNN曾將其評選為全球十大甜點之一，是夏日消暑的熱門去處。",
    "latitude": 25.0421,
    "longitude": 121.5583
  },
  {
    "id": "8",
    "name": "Fika Fika Cafe",
    "district": "中山區",
    "cuisine": "咖啡廳",
    "rating": 4.5,
    "price_level": 2,
    "image_url": "https://images.unsplash.com/photo-1497935586351-b67a49e012bf?q=80&w=2071&auto=format&fit=crop",
    "tags": ["環境安靜", "適合工作", "接受電子支付", "冠軍咖啡"],
    "address": "台北市中山區伊通街33號",
    "phone": "02-2507-0633",
    "website": null,
    "opening_hours": "08:00-21:00",
    "description": "由北歐盃咖啡烘焙大賽冠軍創立的咖啡館，店內裝潢採光明亮、簡約舒適的北歐風格。提供高品質的手沖咖啡與義式咖啡，是咖啡愛好者的朝聖地。",
    "latitude": 25.0505,
    "longitude": 121.5323
  },
  {
    "id": "9",
    "name": "詹記麻辣火鍋",
    "district": "中山區",
    "cuisine": "中式",
    "rating": 4.3,
    "price_level": 3,
    "image_url": "https://images.unsplash.com/photo-1623341214825-9f4f963727da?q=80&w=2070&auto=format&fit=crop",
    "tags": ["麻辣鍋", "適合聚餐", "接受電子支付", "排隊名店"],
    "address": "台北市中山區南京東路二段178號B1",
    "phone": "02-2508-2080",
    "website": null,
    "opening_hours": "17:00-02:00",
    "description": "台北超人氣的麻辣火鍋店，以其香麻帶勁的湯底和滑嫩的鴨血豆腐聞名。裝潢帶有復古台式風格，是用餐時間必定大排長龍的名店。",
    "latitude": 25.0528,
    "longitude": 121.5348
  },
  {
    "id": "10",
    "name": "饗食天堂 (信義店)",
    "district": "信義區",
    "cuisine": "自助餐",
    "rating": 4.2,
    "price_level": 4,
    "image_url": "https://images.unsplash.com/photo-1555262823-6534d00164d7?q=80&w=2070&auto=format&fit=crop",
    "tags": ["適合聚餐", "多樣選擇", "接受電子支付"],
    "address": "台北市信義區信義路五段7號4樓 (台北101)",
    "phone": "02-8780-9988",
    "website": "https://www.eatogether.com.tw/",
    "opening_hours": "11:30-14:00, 14:30-16:30, 17:30-21:30",
    "description": "台灣知名的連鎖自助餐廳，提供數百道各國料理，包含日式、中式、西式與甜點。菜色豐富多樣，適合各種家庭聚餐與朋友聚會。",
    "latitude": 25.0339,
    "longitude": 121.5645
  },
  {
    "id": "11",
    "name": "無老鍋",
    "district": "中山區",
    "cuisine": "中式",
    "rating": 4.5,
    "price_level": 3,
    "image_url": "https://images.unsplash.com/photo-1542826438-64354755de2d?q=80&w=2070&auto=format&fit=crop",
    "tags": ["火鍋", "服務親切", "適合聚餐", "接受電子支付"],
    "address": "台北市中山區中山北路二段36-1號",
    "phone": "02-2581-6238",
    "website": "https://www.wulao.com.tw/",
    "opening_hours": "11:30-01:30",
    "description": "以養生為主題的特色火鍋店，招牌的「麵包豆腐白湯鍋」和「無老辣香鍋」風味獨特。服務人員的90度鞠躬禮也是其一大特色。",
    "latitude": 25.0537,
    "longitude": 121.5229
  },
  {
    "id": "12",
    "name": "The Antipodean",
    "district": "內湖區",
    "cuisine": "澳式早午餐",
    "rating": 4.6,
    "price_level": 3,
    "image_url": "https://images.unsplash.com/photo-1525351484163-7529414344d8?q=80&w=2070&auto=format&fit=crop",
    "tags": ["寵物友善", "環境乾淨", "早午餐", "接受電子支付"],
    "address": "台北市內湖區港墘路26巷4號",
    "phone": "02-8751-0027",
    "website": null,
    "opening_hours": "09:00-18:00",
    "description": "位於內湖的超人氣澳式早午餐店，以其豐盛的「皇后大早餐」和精緻的擺盤聞名。店門口的袋鼠牆是熱門的打卡景點。",
    "latitude": 25.0792,
    "longitude": 121.5726
  },
  {
    "id": "13",
    "name": "一蘭拉麵 (台灣台北本店)",
    "district": "信義區",
    "cuisine": "日式",
    "rating": 4.4,
    "price_level": 3,
    "image_url": "https://images.unsplash.com/photo-1557872943-16a5ac26437e?q=80&w=2070&auto=format&fit=crop",
    "tags": ["拉麵", "24小時營業", "排隊名店", "接受電子支付"],
    "address": "台北市信義區松仁路97號",
    "phone": "02-2758-3868",
    "website": "https://ichiran.com/shop/asia/taiwan/taipei/",
    "opening_hours": "24小時營業",
    "description": "來自日本福岡的知名豚骨拉麵連鎖店，以其客製化的口味選擇和獨特的個人座位聞名。24小時營業，是宵夜的好選擇。",
    "latitude": 25.0345,
    "longitude": 121.5683
  },
  {
    "id": "14",
    "name": "Woosa屋莎鬆餅屋",
    "district": "信義區",
    "cuisine": "甜點",
    "rating": 4.3,
    "price_level": 2,
    "image_url": "https://images.unsplash.com/photo-1565299543923-37dd37887442?q=80&w=1980&auto=format&fit=crop",
    "tags": ["舒芙蕾", "下午茶", "適合約會", "接受電子支付"],
    "address": "台北市信義區忠孝東路五段8號3樓",
    "phone": "02-2723-8778",
    "website": null,
    "opening_hours": "11:00-22:00",
    "description": "以雲朵般輕盈口感的舒芙蕾鬆餅聞名的餐廳，提供多種口味選擇，是下午茶和甜點愛好者的熱門去處。",
    "latitude": 25.0409,
    "longitude": 121.5651
  },
  {
    "id": "15",
    "name": "Texas Roadhouse 德州鮮切牛排",
    "district": "信義區",
    "cuisine": "美式",
    "rating": 4.5,
    "price_level": 3,
    "image_url": "https://images.unsplash.com/photo-1600891964754-6216a8624474?q=80&w=2070&auto=format&fit=crop",
    "tags": ["牛排", "適合聚餐", "美式氛圍", "接受電子支付"],
    "address": "台北市信義區松高路16號3樓",
    "phone": "02-2725-1030",
    "website": "https://www.texasroadhouse.com.tw/",
    "opening_hours": "11:00-22:00",
    "description": "知名的美式連鎖牛排館，以高品質的手工鮮切牛排和熱鬧的用餐氛圍著稱。餐前免費提供的花生和麵包也廣受歡迎。",
    "latitude": 25.038,
    "longitude": 121.5663
  },
  {
    "id": "16",
    "name": "Morton's The Steakhouse",
    "district": "信義區",
    "cuisine": "美式",
    "rating": 4.7,
    "price_level": 4,
    "image_url": "https://images.unsplash.com/photo-1546964124-0cce460f38ef?q=80&w=2070&auto=format&fit=crop",
    "tags": ["高級牛排", "景觀餐廳", "適合約會", "服務親切"],
    "address": "台北市信義區忠孝東路五段68號45樓",
    "phone": "02-2723-7777",
    "website": "https://www.mortons.com/taipei/",
    "opening_hours": "17:00-23:00",
    "description": "位於微風信義45樓的高級牛排館，擁有絕佳的台北101景觀。提供頂級熟成牛排和精緻的服務，是慶祝特殊場合的絕佳選擇。",
    "latitude": 25.0407,
    "longitude": 121.565
  },
  {
    "id": "17",
    "name": "Smith & Wollensky",
    "district": "信義區",
    "cuisine": "美式",
    "rating": 4.6,
    "price_level": 4,
    "image_url": "https://images.unsplash.com/photo-1551024601-bec78aea704b?q=80&w=1964&auto=format&fit=crop",
    "tags": ["電影場景", "高級牛排", "景觀餐廳", "適合約會"],
    "address": "台北市信義區松智路17號47樓",
    "phone": "02-2345-5647",
    "website": "https://www.smithandwollensky.com.tw/",
    "opening_hours": "12:00-22:00",
    "description": "電影《穿著Prada的惡魔》中經典的牛排館，提供頂級的乾式熟成牛排。位於微風南山47樓，同樣擁有壯觀的城市景觀。",
    "latitude": 25.0336,
    "longitude": 121.5661
  },
  {
    "id": "18",
    "name": "點點心",
    "district": "信義區",
    "cuisine": "港式",
    "rating": 4.1,
    "price_level": 2,
    "image_url": "https://images.unsplash.com/photo-1534422298391-e4f8c172dddb?q=80&w=2069&auto=format&fit=crop",
    "tags": ["港式飲茶", "創意點心", "適合聚餐", "接受電子支付"],
    "address": "台北市信義區忠孝東路五段68號B2",
    "phone": "02-2345-0509",
    "website": null,
    "opening_hours": "11:00-22:00",
    "description": "來自香港的超人氣港式點心專門店，以可愛造型的「豬仔流沙包」等創意點心聞名，是年輕人喜愛的排隊名店。",
    "latitude": 25.0407,
    "longitude": 121.565
  },
  {
    "id": "19",
    "name": "肥前屋",
    "district": "中山區",
    "cuisine": "日式",
    "rating": 4.2,
    "price_level": 2,
    "image_url": "https://images.unsplash.com/photo-1626202157122-523179154942?q=80&w=2070&auto=format&fit=crop",
    "tags": ["鰻魚飯", "排隊名店", "CP值高", "只收現金"],
    "address": "台北市中山區中山北路一段121巷13-2號",
    "phone": "02-2562-8701",
    "website": null,
    "opening_hours": "11:00-14:30, 17:00-21:00",
    "description": "台北市最知名的鰻魚飯老店之一，以平實的價格提供美味的炭烤鰻魚飯，用餐時間總是需要排隊等候。",
    "latitude": 25.0489,
    "longitude": 121.5235
  },
  {
    "id": "20",
    "name": "Melrose's",
    "district": "中山區",
    "cuisine": "美式",
    "rating": 4.6,
    "price_level": 3,
    "image_url": "https://images.unsplash.com/photo-1512152272829-e3139592d56f?q=80&w=2070&auto=format&fit=crop",
    "tags": ["漢堡", "奶昔", "復古風", "適合拍照"],
    "address": "台北市中山區中山北路二段77巷11-1號",
    "phone": "02-2567-1288",
    "website": null,
    "opening_hours": "12:00-21:00",
    "description": "充滿加州復古風情的漢堡店，提供道地的美式漢堡、薯條和奶昔。店內裝潢非常適合拍照打卡。",
    "latitude": 25.0569,
    "longitude": 121.5244
  },
  {
    "id": "21",
    "name": "Miss V Bakery Cafe",
    "district": "中山區",
    "cuisine": "甜點",
    "rating": 4.4,
    "price_level": 2,
    "image_url": "https://images.unsplash.com/photo-1588195538326-c5b1e9f80a1b?q=80&w=1950&auto=format&fit=crop",
    "tags": ["肉桂捲", "下午茶", "手作蛋糕", "接受電子支付"],
    "address": "台北市中山區赤峰街49巷22號",
    "phone": "02-2559-7391",
    "website": null,
    "opening_hours": "11:30-20:30",
    "description": "以美味的肉桂捲和各式手作蛋糕聞名的咖啡館，是赤峰街區的人氣店家，適合悠閒的下午茶時光。",
    "latitude": 25.0531,
    "longitude": 121.521
  },
  {
    "id": "22",
    "name": "雙城街夜市",
    "district": "中山區",
    "cuisine": "台灣小吃",
    "rating": 4.1,
    "price_level": 1,
    "image_url": "https://images.unsplash.com/photo-1558280625-5d46a2336828?q=80&w=1974&auto=format&fit=crop",
    "tags": ["夜市", "在地小吃", "CP值高", "24小時"],
    "address": "台北市中山區雙城街",
    "phone": null,
    "website": null,
    "opening_hours": "部分攤販24小時營業",
    "description": "從白天到晚上都有美食的夜市，聚集了許多經典的台灣小吃攤位，如魯肉飯、雞肉飯、海產等，深受在地人與觀光客喜愛。",
    "latitude": 25.0617,
    "longitude": 121.5255
  },
  {
    "id": "23",
    "name": "阜杭豆漿",
    "district": "中正區",
    "cuisine": "台灣小吃",
    "rating": 4.2,
    "price_level": 1,
    "image_url": "https://images.unsplash.com/photo-1552590623-b1dd361730c6?q=80&w=2070&auto=format&fit=crop",
    "tags": ["中式早餐", "燒餅油條", "排隊名店", "米其林推薦"],
    "address": "台北市中正區忠孝東路一段108號2樓",
    "phone": "02-2392-2175",
    "website": null,
    "opening_hours": "05:30-12:30 (週一公休)",
    "description": "米其林必比登推薦的超人氣早餐店，以厚燒餅夾蛋和香醇豆漿聞名，無論何時前往都需要有排隊的心理準備。",
    "latitude": 25.0427,
    "longitude": 121.5229
  },
  {
    "id": "24",
    "name": "杭州小籠湯包",
    "district": "中正區",
    "cuisine": "中式",
    "rating": 4.3,
    "price_level": 2,
    "image_url": "https://images.unsplash.com/photo-1623963027414-0ce20d313337?q=80&w=2070&auto=format&fit=crop",
    "tags": ["小籠包", "CP值高", "適合聚餐"],
    "address": "台北市大安區杭州南路二段19號",
    "phone": "02-2393-1757",
    "website": null,
    "opening_hours": "11:00-21:00",
    "description": "鄰近中正紀念堂的知名小籠包店，被許多人視為鼎泰豐的平價替代選擇，口味同樣出色。",
    "latitude": 25.0331,
    "longitude": 121.5228
  },
  {
    "id": "25",
    "name": "了凡油雞飯‧麵",
    "district": "中正區",
    "cuisine": "港式",
    "rating": 3.9,
    "price_level": 1,
    "image_url": "https://images.unsplash.com/photo-1625944342132-238a05f15611?q=80&w=2070&auto=format&fit=crop",
    "tags": ["米其林", "CP值高", "燒臘"],
    "address": "台北市中正區忠孝西路一段36號",
    "phone": "02-2311-8078",
    "website": null,
    "opening_hours": "11:00-21:00",
    "description": "來自新加坡的全球最便宜米其林一星，以其招牌油雞聞名，價格親民，是體驗星級美味的好選擇。",
    "latitude": 25.0461,
    "longitude": 121.5175
  },
  {
    "id": "26",
    "name": "劉媽媽飯糰",
    "district": "中正區",
    "cuisine": "台灣小吃",
    "rating": 4.5,
    "price_level": 1,
    "image_url": "https://images.unsplash.com/photo-1591223989345-53443b0cf6a3?q=80&w=2070&auto=format&fit=crop",
    "tags": ["飯糰", "在地早餐", "排隊名店"],
    "address": "台北市中正區杭州南路二段88號",
    "phone": "02-3393-6915",
    "website": null,
    "opening_hours": "05:00-11:30",
    "description": "超人氣的傳統飯糰專賣店，提供多種豐富配料選擇，用料實在，是許多台北人的早餐首選。",
    "latitude": 25.0336,
    "longitude": 121.5269
  },
  {
    "id": "27",
    "name": "蘇杭點心店",
    "district": "中正區",
    "cuisine": "中式",
    "rating": 4.1,
    "price_level": 2,
    "image_url": "https://images.unsplash.com/photo-1563729784474-d77dbb933a9e?q=80&w=1974&auto=format&fit=crop",
    "tags": ["江浙菜", "絲瓜蝦仁湯包", "適合家庭"],
    "address": "台北市中正區羅斯福路二段14號",
    "phone": "02-2394-3725",
    "website": null,
    "opening_hours": "11:00-20:30",
    "description": "提供道地的江浙點心和菜餚，招牌絲瓜蝦仁湯包清爽鮮甜，深受老饕喜愛。",
    "latitude": 25.0294,
    "longitude": 121.5208
  },
  {
    "id": "28",
    "name": "明星咖啡館",
    "district": "中正區",
    "cuisine": "咖啡廳",
    "rating": 4.0,
    "price_level": 2,
    "image_url": "https://images.unsplash.com/photo-1501339847302-ac426a4a7cbb?q=80&w=2070&auto=format&fit=crop",
    "tags": ["歷史悠久", "俄式料理", "文學氣息"],
    "address": "台北市中正區武昌街一段5號2樓",
    "phone": "02-2381-5589",
    "website": null,
    "opening_hours": "10:00-21:30",
    "description": "充滿歷史與文學氣息的咖啡館，曾是許多台灣文學家的聚集地。除了咖啡，也提供具特色的俄式料理。",
    "latitude": 25.046,
    "longitude": 121.5126
  },
  {
    "id": "29",
    "name": "Al Revés顛倒餐廳",
    "district": "中正區",
    "cuisine": "義式",
    "rating": 4.7,
    "price_level": 2,
    "image_url": "https://images.unsplash.com/photo-1574071318508-1cdbab80d002?q=80&w=2069&auto=format&fit=crop",
    "tags": ["工業風", "義大利麵", "燉飯", "適合約會"],
    "address": "台北市中正區羅斯福路三段284巷9號",
    "phone": "02-2366-0288",
    "website": null,
    "opening_hours": "12:00-21:00",
    "description": "位於公館商圈的工業風義式餐廳，以其高品質的義大利麵和燉飯受到學生和周邊居民的喜愛。",
    "latitude": 25.0183,
    "longitude": 121.5312
  },
  {
    "id": "30",
    "name": "中正紀念堂牌樓",
    "district": "中正區",
    "cuisine": "其他",
    "rating": 4.0,
    "price_level": 1,
    "image_url": "https://images.unsplash.com/photo-1588002316310-b93d368b64e6?q=80&w=1974&auto=format&fit=crop",
    "tags": ["打卡景點", "文化地標"],
    "address": "台北市中正區中山南路21號",
    "phone": null,
    "website": null,
    "opening_hours": "24小時開放",
    "description": "雖然不是餐廳，但中正紀念堂周邊是美食的聚集地，從這裡出發可以找到許多美味的在地小吃和餐廳。",
    "latitude": 25.0347,
    "longitude": 121.5217
  },
  {
    "id": "31",
    "name": "池先生",
    "district": "文山區",
    "cuisine": "南洋料理",
    "rating": 4.4,
    "price_level": 2,
    "image_url": "https://images.unsplash.com/photo-1562565652-a0d8f0c59eb4?q=80&w=2070&auto=format&fit=crop",
    "tags": ["馬來西亞料理", "肉骨茶", "椰漿飯", "政大學生推薦"],
    "address": "台北市文山區指南路二段45巷7號",
    "phone": "02-2938-4197",
    "website": null,
    "opening_hours": "11:30-20:30",
    "description": "政大周邊超人氣的馬來西亞料理專賣店，道地的肉骨茶和椰漿飯深受學生喜愛。",
    "latitude": 25.0006,
    "longitude": 121.5746
  },
  {
    "id": "32",
    "name": "RUFOUS Coffee Roasters",
    "district": "文山區",
    "cuisine": "咖啡廳",
    "rating": 4.5,
    "price_level": 2,
    "image_url": "https://images.unsplash.com/photo-1559925393-8be0ec4767c8?q=80&w=2070&auto=format&fit=crop",
    "tags": ["自家烘焙", "手沖咖啡", "環境安靜"],
    "address": "台北市文山區木柵路三段242號",
    "phone": "02-2936-6880",
    "website": null,
    "opening_hours": "13:00-21:00 (週四公休)",
    "description": "專業的自家烘焙咖啡館，提供高品質的手沖單品咖啡，是咖啡愛好者不容錯過的店家。",
    "latitude": 24.9926,
    "longitude": 121.5694
  },
  {
    "id": "33",
    "name": "金鮨",
    "district": "文山區",
    "cuisine": "日式",
    "rating": 4.6,
    "price_level": 3,
    "image_url": "https://images.unsplash.com/photo-1563612116-115823031072?q=80&w=2070&auto=format&fit=crop",
    "tags": ["無菜單料理", "壽司", "新鮮", "預約制"],
    "address": "台北市文山區興隆路二段275號",
    "phone": "02-2932-9996",
    "website": null,
    "opening_hours": "12:00-14:30, 18:00-21:30",
    "description": "文山區評價極高的無菜單日本料理，以新鮮的食材和師傅精湛的手藝聞名，需要提前預約。",
    "latitude": 24.999,
    "longitude": 121.554
  },
  {
    "id": "34",
    "name": "越南街",
    "district": "文山區",
    "cuisine": "越南料理",
    "rating": 4.2,
    "price_level": 1,
    "image_url": "https://images.unsplash.com/photo-1618349747530-5b12c75a4941?q=80&w=2070&auto=format&fit=crop",
    "tags": ["越南河粉", "CP值高", "在地推薦"],
    "address": "台北市文山區木新路三段74號",
    "phone": "02-2938-2996",
    "website": null,
    "opening_hours": "11:00-21:00",
    "description": "提供道地且平價的越南料理，招牌的火車頭河粉份量十足，湯頭鮮美，是在地人用餐的好選擇。",
    "latitude": 24.9904,
    "longitude": 121.5644
  },
  {
    "id": "35",
    "name": "11 pasta",
    "district": "文山區",
    "cuisine": "義式",
    "rating": 4.3,
    "price_level": 2,
    "image_url": "https://images.unsplash.com/photo-1551183053-bf91a1d81141?q=80&w=1964&auto=format&fit=crop",
    "tags": ["義大利麵", "燉飯", "家庭式餐廳"],
    "address": "台北市文山區景興路274之2號",
    "phone": "02-2933-8889",
    "website": null,
    "opening_hours": "11:30-21:00",
    "description": "溫馨的家庭式義大利麵餐廳，提供多種口味選擇，價格實惠，深受附近居民和學生歡迎。",
    "latitude": 24.993,
    "longitude": 121.5458
  },
  {
    "id": "36",
    "name": "GomanMango",
    "district": "文山區",
    "cuisine": "冰品",
    "rating": 4.1,
    "price_level": 2,
    "image_url": "https://images.unsplash.com/photo-1534353436294-0dbd4bdac845?q=80&w=1974&auto=format&fit=crop",
    "tags": ["芒果冰", "雪花冰", "夏日甜品"],
    "address": "台北市文山區羅斯福路五段176號",
    "phone": "02-8663-1203",
    "website": null,
    "opening_hours": "12:00-22:00",
    "description": "位於萬隆站附近的知名冰店，以真材實料的芒果冰和各式雪花冰聞名，是夏天消暑的好去處。",
    "latitude": 25.0069,
    "longitude": 121.5367
  },
  {
    "id": "37",
    "name": "Juicy Bun",
    "district": "文山區",
    "cuisine": "美式",
    "rating": 4.5,
    "price_level": 2,
    "image_url": "https://images.unsplash.com/photo-1568901346375-23c9450c58cd?q=80&w=1998&auto=format&fit=crop",
    "tags": ["美式漢堡", "手作漢堡", "政大美食"],
    "address": "台北市文山區萬壽路19號",
    "phone": "02-2939-0780",
    "website": null,
    "opening_hours": "11:30-21:00",
    "description": "政大附近的超人氣手作漢堡店，漢堡肉多汁美味，麵包鬆軟，是學生們的最愛。",
    "latitude": 24.9877,
    "longitude": 121.5772
  },
  {
    "id": "38",
    "name": "景美夜市",
    "district": "文山區",
    "cuisine": "台灣小吃",
    "rating": 4.0,
    "price_level": 1,
    "image_url": "https://images.unsplash.com/photo-1534422298391-e4f8c172dddb?q=80&w=2069&auto=format&fit=crop",
    "tags": ["夜市", "在地小吃", "CP值高"],
    "address": "台北市文山區景美街",
    "phone": null,
    "website": null,
    "opening_hours": "17:00-24:00",
    "description": "歷史悠久的在地夜市，聚集了許多經典小吃，如上海生煎包、豆花、米粉湯等，是體驗在地夜市文化的好地方。",
    "latitude": 24.9937,
    "longitude": 121.5413
  },
  {
    "id": "39",
    "name": "永康牛肉麵",
    "district": "大安區",
    "cuisine": "中式",
    "rating": 4.3,
    "price_level": 2,
    "image_url": "https://images.unsplash.com/photo-1553619933-1ef51b04a259?q=80&w=2070&auto=format&fit=crop",
    "tags": ["牛肉麵", "排隊名店", "觀光客必吃"],
    "address": "台北市大安區金山南路二段31巷17號",
    "phone": "02-2351-1051",
    "website": null,
    "opening_hours": "11:00-21:00",
    "description": "永康商圈的指標性美食，以川味紅燒牛肉麵聞名，湯頭濃郁，牛肉軟嫩，是國內外旅客的必訪店家。",
    "latitude": 25.0321,
    "longitude": 121.5284
  },
  {
    "id": "40",
    "name": "Toasteria Cafe 吐司利亞",
    "district": "大安區",
    "cuisine": "地中海料理",
    "rating": 4.4,
    "price_level": 3,
    "image_url": "https://images.unsplash.com/photo-1528605248644-14dd04022da1?q=80&w=2070&auto=format&fit=crop",
    "tags": ["帕尼尼", "早午餐", "地中海風情", "適合聚餐"],
    "address": "台北市大安區信義路二段200號",
    "phone": "02-2321-0020",
    "website": "https://www.toasteriacafe.com/",
    "opening_hours": "09:00-01:00",
    "description": "以超過50種帕尼尼聞名的地中海料理餐廳，獨棟的建築和充滿異國風情的裝潢是其特色，從早午餐到宵夜都提供服務。",
    "latitude": 25.0336,
    "longitude": 121.5288
  },
  {
    "id": "41",
    "name": "Sugar Pea",
    "district": "大安區",
    "cuisine": "健康輕食",
    "rating": 4.5,
    "price_level": 3,
    "image_url": "https://images.unsplash.com/photo-1540420773420-2850a43d09a1?q=80&w=1974&auto=format&fit=crop",
    "tags": ["健康餐", "早午餐", "玻璃屋", "適合拍照"],
    "address": "台北市大安區仁愛路四段300巷20弄16號",
    "phone": "02-2700-8228",
    "website": null,
    "opening_hours": "11:30-20:30",
    "description": "採光明亮的玻璃屋餐廳，提供健康、美味的加州風味料理，如沙拉碗、三明治等，是用餐和拍照打卡的熱門地點。",
    "latitude": 25.0375,
    "longitude": 121.554
  },
  {
    "id": "42",
    "name": "The Normal",
    "district": "大安區",
    "cuisine": "咖啡廳",
    "rating": 4.6,
    "price_level": 3,
    "image_url": "https://images.unsplash.com/photo-1511920183359-b1a77a03a820?q=80&w=1974&auto=format&fit=crop",
    "tags": ["複合式空間", "精品咖啡", "設計感"],
    "address": "台北市大安區仁愛路四段435號",
    "phone": "02-2775-4996",
    "website": null,
    "opening_hours": "10:00-19:00",
    "description": "結合咖啡、餐飲與服飾的複合式空間，提供高品質的精品咖啡和簡餐，店內設計極具現代感。",
    "latitude": 25.0381,
    "longitude": 121.5593
  },
  {
    "id": "43",
    "name": "通化夜市",
    "district": "大安區",
    "cuisine": "台灣小吃",
    "rating": 4.1,
    "price_level": 1,
    "image_url": "https://images.unsplash.com/photo-1573225363413-3335b23be735?q=80&w=1974&auto=format&fit=crop",
    "tags": ["夜市", "米其林推薦", "在地小吃"],
    "address": "台北市大安區臨江街",
    "phone": null,
    "website": null,
    "opening_hours": "18:00-24:00",
    "description": "又稱臨江街夜市，是台北市區內規模較大的夜市之一，有多家米其林必比登推薦的小吃攤位，如駱記小炒、梁記滷味等。",
    "latitude": 25.0313,
    "longitude": 121.5549
  },
  {
    "id": "44",
    "name": "Fourplay Cuisine",
    "district": "大安區",
    "cuisine": "酒吧",
    "rating": 4.5,
    "price_level": 3,
    "image_url": "https://images.unsplash.com/photo-1514362545857-3bc96c4cc7a1?q=80&w=2070&auto=format&fit=crop",
    "tags": ["無酒單", "創意調酒", "氣氛佳"],
    "address": "台北市大安區東豐街67號",
    "phone": "02-2708-3898",
    "website": null,
    "opening_hours": "18:00-02:00",
    "description": "知名的無酒單酒吧，調酒師會根據客人的喜好和心情客製化調酒，充滿驚喜與創意。",
    "latitude": 25.035,
    "longitude": 121.5478
  },
  {
    "id": "45",
    "name": "PS TAPAS 西班牙餐酒館",
    "district": "大安區",
    "cuisine": "西班牙料理",
    "rating": 4.3,
    "price_level": 3,
    "image_url": "https://images.unsplash.com/photo-1505275350444-8362481543b3?q=80&w=2070&auto=format&fit=crop",
    "tags": ["Tapas", "海鮮飯", "適合聚餐"],
    "address": "台北市大安區安和路一段21巷19號",
    "phone": "02-2740-9090",
    "website": null,
    "opening_hours": "12:00-23:00",
    "description": "提供道地的西班牙Tapas和海鮮飯，用餐氣氛熱鬧，適合三五好友一起分享美食。",
    "latitude": 25.0384,
    "longitude": 121.5516
  },
  {
    "id": "46",
    "name": "覺旅咖啡",
    "district": "內湖區",
    "cuisine": "咖啡廳",
    "rating": 4.3,
    "price_level": 2,
    "image_url": "https://images.unsplash.com/photo-1549925248-23c2859b8c08?q=80&w=1974&auto=format&fit=crop",
    "tags": ["DIY披薩", "不限時", "空間寬敞", "適合工作"],
    "address": "台北市內湖區瑞光路583巷24號",
    "phone": "02-8751-3227",
    "website": "https://journeykaffe.org/",
    "opening_hours": "08:00-22:00",
    "description": "內科知名的咖啡館，以寬敞的空間和不限時的特色吸引許多人在此工作或唸書。提供DIY披薩和果汁，充滿樂趣。",
    "latitude": 25.081,
    "longitude": 121.5794
  },
  {
    "id": "47",
    "name": "李家韓國食堂",
    "district": "內湖區",
    "cuisine": "韓式",
    "rating": 4.5,
    "price_level": 2,
    "image_url": "https://images.unsplash.com/photo-1589301760014-d929f397918b?q=80&w=2070&auto=format&fit=crop",
    "tags": ["韓式料理", "部隊鍋", "海鮮煎餅", "在地人推薦"],
    "address": "台北市內湖區成功路四段200號",
    "phone": "02-2796-6996",
    "website": null,
    "opening_hours": "11:30-14:00, 17:00-21:00",
    "description": "內湖地區評價極高的韓式料理，提供道地的家常菜色，海鮮煎餅和部隊鍋是必點菜色。",
    "latitude": 25.0827,
    "longitude": 121.5872
  },
  {
    "id": "48",
    "name": "象園咖啡",
    "district": "內湖區",
    "cuisine": "親子餐廳",
    "rating": 4.0,
    "price_level": 3,
    "image_url": "https://images.unsplash.com/photo-1555939594-58d7cb561ad1?q=80&w=1974&auto=format&fit=crop",
    "tags": ["親子友善", "遊戲區", "湖景", "大象溜滑梯"],
    "address": "台北市內湖區內湖路二段192號",
    "phone": "02-2792-6080",
    "website": null,
    "opening_hours": "11:00-21:00",
    "description": "位於碧湖公園旁的知名親子餐廳，戶外有小朋友最愛的大象溜滑梯和遊戲區，是溜小孩的好去處。",
    "latitude": 25.087,
    "longitude": 121.5841
  },
  {
    "id": "49",
    "name": "瓦城泰國料理",
    "district": "內湖區",
    "cuisine": "泰式",
    "rating": 4.2,
    "price_level": 3,
    "image_url": "https://images.unsplash.com/photo-1565299585323-20f7d1b32958?q=80&w=1948&auto=format&fit=crop",
    "tags": ["泰式料理", "連鎖品牌", "適合聚餐"],
    "address": "台北市內湖區舊宗路一段188號",
    "phone": "02-2795-5522",
    "website": "https://www.thaitown.com.tw/",
    "opening_hours": "11:30-22:00",
    "description": "台灣最大的泰國料理連鎖品牌，菜色品質穩定，月亮蝦餅、綠咖哩等經典菜色廣受歡迎，適合家庭或朋友聚餐。",
    "latitude": 25.0594,
    "longitude": 121.581
  },
  {
    "id": "50",
    "name": "737巷夜市",
    "district": "內湖區",
    "cuisine": "台灣小吃",
    "rating": 4.2,
    "price_level": 1,
    "image_url": "https://images.unsplash.com/photo-1600326145359-3a4447be2795?q=80&w=2070&auto=format&fit=crop",
    "tags": ["夜市", "在地小吃", "豬血糕", "小籠包"],
    "address": "台北市內湖區內湖路一段737巷",
    "phone": null,
    "website": null,
    "opening_hours": "17:00-24:00",
    "description": "內湖最熱鬧的夜市，聚集了許多人氣小吃攤，如特製醬汁豬血糕、平價小籠包、沙威瑪等，是內湖居民的晚餐廚房。",
    "latitude": 25.0838,
    "longitude": 121.5807
  },
  {
    "id": "51",
    "name": "牛耳精緻麵館",
    "district": "內湖區",
    "cuisine": "中式",
    "rating": 4.4,
    "price_level": 2,
    "image_url": "https://images.unsplash.com/photo-1626812891146-5d681b655f4a?q=80&w=2070&auto=format&fit=crop",
    "tags": ["牛肉麵", "番茄牛肉麵", "在地推薦"],
    "address": "台北市內湖區內湖路一段323巷16弄2號",
    "phone": "02-8797-3200",
    "website": null,
    "opening_hours": "11:30-20:30",
    "description": "隱身在巷弄中的高品質牛肉麵店，以濃郁的番茄湯頭和半筋半肉的牛肉麵聞名，是在地人的口袋名單。",
    "latitude": 25.0825,
    "longitude": 121.5714
  },
  {
    "id": "52",
    "name": "Pizzeria Oggi",
    "district": "內湖區",
    "cuisine": "義式",
    "rating": 4.5,
    "price_level": 3,
    "image_url": "https://images.unsplash.com/photo-1593504049359-a48866a246b1?q=80&w=1964&auto=format&fit=crop",
    "tags": ["拿坡里披薩", "窯烤披薩", "認證披薩店"],
    "address": "台北市內湖區民權東路六段122號",
    "phone": "02-2792-6178",
    "website": null,
    "opening_hours": "11:30-21:30",
    "description": "獲得義大利拿坡里披薩協會(AVPN)認證的披薩店，提供道地的窯烤拿坡里披薩，餅皮Q彈，用料講究。",
    "latitude": 25.0645,
    "longitude": 121.5902
  },
  {
    "id": "53",
    "name": "鳥居町",
    "district": "內湖區",
    "cuisine": "日式",
    "rating": 4.1,
    "price_level": 2,
    "image_url": "https://images.unsplash.com/photo-1526318896980-cf78c088247c?q=80&w=1974&auto=format&fit=crop",
    "tags": ["居酒屋", "串燒", "深夜食堂"],
    "address": "台北市內湖區江南街116巷2號",
    "phone": "02-2659-6782",
    "website": null,
    "opening_hours": "18:00-01:00",
    "description": "內科周邊的日式居酒屋，提供各式串燒、炸物和日本酒，是上班族下班後放鬆小酌的好去處。",
    "latitude": 25.0763,
    "longitude": 121.5768
  },
  {
    "id": "54",
    "name": "義饗食堂",
    "district": "信義區",
    "cuisine": "義式",
    "rating": 4.0,
    "price_level": 4,
    "image_url": "https://images.unsplash.com/photo-1504674900247-0877df9cc836?q=80&w=2070&auto=format&fit=crop",
    "tags": ["自助餐", "義式料理", "酒店Buffet", "家庭聚餐"],
    "address": "台北市信義區松仁路38號",
    "phone": "02-6622-8018",
    "website": null,
    "opening_hours": "12:00-14:30, 18:00-21:30",
    "description": "位於寒舍艾麗酒店內的義式主題自助餐廳，提供多樣的現做義大利麵、披薩、海鮮與甜點，用餐環境優雅。",
    "latitude": 25.0374,
    "longitude": 121.5678
  },
  {
    "id": "55",
    "name": "樂天皇朝",
    "district": "信義區",
    "cuisine": "中式",
    "rating": 4.2,
    "price_level": 3,
    "image_url": "https://images.unsplash.com/photo-1585576853634-97213233a7d5?q=80&w=2070&auto=format&fit=crop",
    "tags": ["八色小籠包", "新加坡料理", "適合聚餐"],
    "address": "台北市信義區忠孝東路五段68號4樓",
    "phone": "02-2722-6545",
    "website": null,
    "opening_hours": "11:00-21:30",
    "description": "來自新加坡的知名中餐品牌，以其全球首創的八色小籠包聞名，每種顏色代表不同口味，充滿特色。",
    "latitude": 25.0407,
    "longitude": 121.565
  },
  {
    "id": "56",
    "name": "Just a Bear",
    "district": "中山區",
    "cuisine": "寵物餐廳",
    "rating": 4.8,
    "price_level": 2,
    "image_url": "https://images.unsplash.com/photo-1598817997925-64facb19615a?q=80&w=1974&auto=format&fit=crop",
    "tags": ["寵物友善", "狗狗店長", "早午餐", "咖啡"],
    "address": "台北市中山區撫順街11號",
    "phone": "02-2595-1828",
    "website": null,
    "opening_hours": "10:00-18:00",
    "description": "有可愛狗狗店長的寵物友善餐廳，提供美味的早午餐和咖啡，是與毛小孩共度時光的好地方。",
    "latitude": 25.0621,
    "longitude": 121.5235
  },
  {
    "id": "57",
    "name": "時差 Jetlag",
    "district": "中正區",
    "cuisine": "咖啡廳",
    "rating": 4.4,
    "price_level": 2,
    "image_url": "https://images.unsplash.com/photo-1447933601403-0c6688de566e?q=80&w=1961&auto=format&fit=crop",
    "tags": ["文青風", "適合工作", "手沖咖啡", "甜點"],
    "address": "台北市中正區中坡南路37號",
    "phone": "02-2759-0228",
    "website": null,
    "opening_hours": "12:00-22:00",
    "description": "充滿文青風格的咖啡館，提供舒適的環境和電源插座，適合工作或閱讀。手沖咖啡和手作甜點都很有水準。",
    "latitude": 25.0416,
    "longitude": 121.5786
  },
  {
    "id": "58",
    "name": "小螺波",
    "district": "大安區",
    "cuisine": "中式",
    "rating": 4.3,
    "price_level": 2,
    "image_url": "https://images.unsplash.com/photo-1626084474320-802c5f11ce51?q=80&w=2070&auto=format&fit=crop",
    "tags": ["螺螄粉", "重口味", "排隊名店"],
    "address": "台北市大安區溫州街87號",
    "phone": "02-2362-9926",
    "website": null,
    "opening_hours": "12:00-21:00",
    "description": "台北知名的螺螄粉專賣店，以其酸、辣、鮮、爽、燙的獨特風味吸引大量顧客，是用餐時間的排隊名店。",
    "latitude": 25.0211,
    "longitude": 121.5323
  },
  {
    "id": "59",
    "name": "螺絲粉女王",
    "district": "文山區",
    "cuisine": "中式",
    "rating": 4.2,
    "price_level": 2,
    "image_url": "https://images.unsplash.com/photo-1626812891146-5d681b655f4a?q=80&w=2070&auto=format&fit=crop",
    "tags": ["螺螄粉", "在地推薦", "酸辣"],
    "address": "台北市文山區木柵路一段115號",
    "phone": "0988-123-456",
    "website": null,
    "opening_hours": "11:30-20:00",
    "description": "文山區在地的螺螄粉店家，提供道地的柳州風味，是喜愛重口味食客的好選擇。",
    "latitude": 24.9888,
    "longitude": 121.5583
  },
  {
    "id": "60",
    "name": "IKEA 餐廳",
    "district": "內湖區",
    "cuisine": "歐式",
    "rating": 3.8,
    "price_level": 1,
    "image_url": "https://images.unsplash.com/photo-1555939594-58d7cb561ad1?q=80&w=1974&auto=format&fit=crop",
    "tags": ["瑞典肉丸", "CP值高", "家庭友善"],
    "address": "台北市內湖區舊宗路一段128號",
    "phone": "02-412-8869",
    "website": "https://www.ikea.com.tw/zh/store/nei-hu/restaurant",
    "opening_hours": "09:00-21:30",
    "description": "IKEA賣場內的瑞典餐廳，以經典的瑞典肉丸和鮭魚料理聞名，價格實惠，是逛街之餘用餐的好選擇。",
    "latitude": 25.0601,
    "longitude": 121.581
  }
]
